A10a1Gd 17.2  0.15  K18BI  69.56216  194.32962   97.37460    9.08184  0.4574963  0.45822243   1.6662947                  4   1    0 days 0.23         NEOCPNomin           A10a1Gd
